CUTE-1 (CO-55)          
1 27844U 03031E   22352.57261598  .00000353  00000+0  17740-3 0  9991
2 27844  98.6792 357.4969 0008849 291.1471  68.8761 14.22561850 10051
CUBESAT XI-IV (CO-57)   
1 27848U 03031J   22352.59376135  .00000302  00000+0  15595-3 0  9991
2 27848  98.6833 357.9938 0008864 307.4631  52.5740 14.22103484  9834
CUBESAT XI-V            
1 28895U 05043F   22352.58086098  .00001390  00000+0  26968-3 0  9998
2 28895  98.1300 121.4397 0015284 282.3085  77.6407 14.64735830914365
CUTE-1.7+APD II (CO-65) 
1 32785U 08021C   22352.71398677  .00003436  00000+0  35788-3 0  9997
2 32785  97.6826 318.0596 0012324 350.5099   9.5884 14.90400390793924
AAUSAT-II               
1 32788U 08021F   22352.89896679  .00006995  00000+0  57599-3 0  9991
2 32788  97.5528 332.0779 0008979 207.5669 152.5079 14.99358729796058
DELFI-C3 (DO-64)        
1 32789U 08021G   22352.83091079  .00020396  00000+0  97071-3 0  9997
2 32789  97.3249  12.9075 0010638  48.4796 311.7350 15.19137486799869
SEEDS II (CO-66)        
1 32791U 08021J   22352.66228193  .00004568  00000+0  43460-3 0  9996
2 32791  97.6342 323.3261 0011175 300.4781  59.5335 14.93866079794680
SWISSCUBE               
1 35932U 09051B   22352.90680362  .00000963  00000+0  22424-3 0  9999
2 35932  98.5433 213.7883 0007031 193.2454 166.8560 14.57137053702958
BEESAT-1                
1 35933U 09051C   22352.58698374  .00000866  00000+0  20290-3 0  9997
2 35933  98.5367 214.9521 0005026 205.3145 154.7806 14.57119098702982
ITUPSAT1                
1 35935U 09051E   22352.85543288  .00000776  00000+0  18660-3 0  9990
2 35935  98.5467 215.2324 0007275 211.5414 148.5348 14.56209876702712
TISAT 1                 
1 36799U 10035E   22352.65064942  .00003283  00000+0  31405-3 0  9994
2 36799  98.1590 210.2522 0010696 204.9960 155.0742 14.93932570675256
M-CUBED & EXP-1 PRIME   
1 37855U 11061F   22352.86543437  .00015908  00000+0  63251-3 0  9993
2 37855 101.7140 210.4433 0141723 228.2858 130.6167 15.16635803609146
AEROCUBE 4.5A           
1 38767U 12048K   22352.80279282  .00004833  00000+0  33963-3 0  9992
2 38767  64.6652 251.2547 0158179 211.5274 147.6291 14.96730078178350
AEROCUBE 4.5B           
1 38768U 12048L   22352.85880403  .00007870  00000+0  48897-3 0  9997
2 38768  64.6649 201.0920 0141739 206.7240 152.6526 15.02290459178829
STRAND-1                
1 39090U 13009E   22352.82264980  .00000300  00000+0  11927-3 0  9992
2 39090  98.3915 186.0770 0010139  83.0398 277.1941 14.35388550513846
BRITE-AUSTRIA           
1 39091U 13009F   22352.81110758  .00000218  00000+0  90792-4 0  9991
2 39091  98.3936 185.2643 0011631  89.0558 271.1960 14.35342813513872
SOMP                    
1 39134U 13015E   22352.79368693  .00026846  00000+0  76711-3 0  9995
2 39134  64.8574 174.2510 0029116 253.8495 105.9435 15.35506411535080
BEESAT-3                
1 39135U 13015F   22352.82341341  .00015425  00000+0  54510-3 0  9995
2 39135  64.8637 215.3530 0034686 254.9137 104.8156 15.28808949534678
BEESAT-2                
1 39136U 13015G   22352.81253636  .00014773  00000+0  54965-3 0  9993
2 39136  64.8728 224.8006 0025285 288.1989  71.6389 15.27411169534023
NEE-01 PEGASO           
1 39151U 13018B   22352.53185403  .00001848  00000+0  24211-3 0  9998
2 39151  98.0006  97.7295 0016996  22.9829 337.2140 14.81494518520930
ESTCUBE 1               
1 39161U 13021C   22352.76791700  .00001627  00000+0  25857-3 0  9993
2 39161  97.8908  65.0970 0008961 183.7759 176.3354 14.73371524516608
POPACS 1                
1 39268U 13055D   22352.88462048  .00019539  00000+0  47232-3 0  9993
2 39268  80.9946  40.1874 0544251   1.0658 359.1556 14.57241320480095
POPACS 2                
1 39269U 13055E   22352.58039485  .00019673  00000+0  52482-3 0  9998
2 39269  81.0100 103.2522 0631216 164.5761 197.5696 14.36912547476580
POPACS 3                
1 39270U 13055F   22352.68460916  .00007048  00000+0  21345-3 0  9995
2 39270  81.0132 139.4782 0679216 266.9489  85.3825 14.24081900454831
ZACUBE-1 (TSHEPISOSAT)  
1 39417U 13066B   22352.87591264  .00002140  00000+0  26137-3 0  9994
2 39417  97.6618 316.3784 0057229 158.3001 202.0657 14.83147892490459
WNISAT-1                
1 39423U 13066H   22352.63860516  .00001110  00000+0  22734-3 0  9999
2 39423  97.7224 220.2841 0172830 282.2850  75.9049 14.53715101481208
TRITON-1                
1 39427U 13066M   22352.76145280  .00002635  00000+0  41111-3 0  9994
2 39427  97.8269 280.7020 0111756  35.9754 324.8909 14.69567211485847
DELFI-N3XT              
1 39428U 13066N   22352.76914380  .00004037  00000+0  61117-3 0  9996
2 39428  97.8265 279.3936 0116679  48.5456 312.5701 14.70177604485605
GOMX-1                  
1 39430U 13066Q   22352.75925381  .00001603  00000+0  29055-3 0  9992
2 39430  97.7961 249.3362 0147768 183.0287 177.0042 14.60734016483199
CUBEBUG-2 (LO-74)       
1 39440U 13066AA  22352.82145161  .00002565  00000+0  34792-3 0  9993
2 39440  97.7509 302.9303 0076164 253.1313 106.1536 14.77756615487506
NEE-02 KRYSAOR          
1 39441U 13066AB  22352.78906356  .00001920  00000+0  27100-3 0  9999
2 39441  97.7620 299.9577 0078311 268.4819  90.7419 14.76274640487224
FUNCUBE-1 (AO-73)       
1 39444U 13066AE  22352.81669645  .00002654  00000+0  31317-3 0  9993
2 39444  97.6486 318.7639 0056173 145.5017 214.9864 14.84402336488861
UWE-3                   
1 39446U 13066AG  22352.79318409  .00002137  00000+0  27664-3 0  9997
2 39446  97.7115 309.2164 0066741 207.1355 152.6365 14.80342681487723
AEROCUBE 5A             
1 39465U 13072D   22352.85741141  .00064285  00000+0  23677-2 0  9996
2 39465 120.4800 289.6055 0162418 110.9596 250.8937 15.15816715177371
BRITE-CA1 (TORONTO)     
1 40020U 14033L   22352.69405749  .00000725  00000+0  12959-3 0  9997
2 40020  97.7995 142.5745 0087206  36.7070 324.0066 14.67326581454678
DUCHIFAT-1              
1 40021U 14033M   22352.78591755  .00004225  00000+0  39763-3 0  9992
2 40021  98.0361 306.7214 0012418 144.8010 215.4032 14.94376611462217
NANOSATC-BR1            
1 40024U 14033Q   22352.81189125  .00004712  00000+0  45861-3 0  9990
2 40024  98.0071 299.0894 0011956 151.3195 208.8684 14.92974845461476
QB50P1                  
1 40025U 14033R   22352.81948958  .00002909  00000+0  29588-3 0  9992
2 40025  97.9783 291.9125 0011957 162.9856 197.1765 14.91526047461236
QB50P2                  
1 40032U 14033Y   22352.78545116  .00003371  00000+0  34748-3 0  9993
2 40032  97.9525 286.5196 0011539 160.0714 200.0956 14.90881272461075
PERSEUS-M2              
1 40037U 14033AD  22352.78408630  .00001351  00000+0  15494-3 0  9990
2 40037  97.9025 274.0193 0013743 187.3608 172.7408 14.87509279460523
PERSEUS-M1              
1 40039U 14033AF  22352.76054422  .00001428  00000+0  16496-3 0  9994
2 40039  97.8905 271.3972 0013628 186.6663 173.4374 14.87113339460394
POLYITAN-1              
1 40042U 14033AJ  22352.81966203  .00003670  00000+0  36923-3 0  9991
2 40042  97.9894 293.3855 0014121 155.8716 204.3166 14.91778481461121
TIGRISAT                
1 40043U 14033AK  22352.45096602  .00001798  00000+0  26481-3 0  9996
2 40043  97.6539 171.8584 0057409 280.4795  78.9950 14.75451940456751
AEROCUBE 6A             
1 40045U 14033AM  22352.72022314  .00003196  00000+0  45016-3 0  9996
2 40045  97.6552 181.4003 0055109 265.8401  93.6510 14.76922725456972
AEROCUBE 6B             
1 40046U 14033AN  22352.70669105  .00003044  00000+0  42339-3 0  9997
2 40046  97.6479 179.7984 0053703 263.6985  95.8108 14.77541529456988
UKUBE-1                 
1 40074U 14037F   22352.74719700  .00003531  00000+0  40824-3 0  9991
2 40074  98.3583 242.8865 0005327  57.8224 302.3505 14.86248267457432
BRITE-PL2 (HEWELIUSZ)   
1 40119U 14049B   22352.79416931  .00001419  00000+0  17006-3 0  9998
2 40119  97.8845  86.5791 0017069   3.7266 356.4073 14.85573437451376
FIREBIRD 4              
1 40378U 15003C   22352.70502981  .00028451  00000+0  67441-3 0  9991
2 40378  99.0794 259.7714 0085330 116.1569 244.8479 15.37925028436659
GRIFEX                  
1 40379U 15003D   22352.67959417  .00013553  00000+0  42471-3 0  9991
2 40379  99.0865 243.2124 0104921 166.5484 193.8586 15.27952035435709
CP10 (EXOCUBE)          
1 40380U 15003E   22352.66535838  .00011391  00000+0  40340-3 0  9990
2 40380  99.0963 234.9476 0114949 194.5986 165.1917 15.23221712435163
TIANWANG 1A (TW-1A)     
1 40928U 15051D   22352.88654141  .00572651  15115-3  10137-2 0  9992
2 40928  97.0056  16.8522 0004288  83.4994  40.7697 16.01932620407201
EXACTVIEW 9             
1 40936U 15052G   22352.41014198  .00002227  00000+0  21615-3 0  9997
2 40936   6.0042 300.2716 0010863 244.3670 115.5335 14.77577843390467
AEROCUBE 5C             
1 40965U 15058B   22352.82201912  .00001484  00000+0  18757-3 0  9999
2 40965  64.7774 251.6745 0169207 137.8177 223.6094 14.76298924176170
AEROCUBE 7              
1 40966U 15058C   22352.81005891  .00001847  00000+0  22623-3 0  9997
2 40966  64.7783 248.3608 0166734 137.3528 224.0664 14.77018031176188
ATHENOXAT 1             
1 41168U 15077C   22352.82949490  .00029395  00000+0  10231-2 0  9995
2 41168  14.9932 158.3475 0007466 322.6106  74.7653 15.27518505388477
GALASSIA                
1 41170U 15077E   22352.57894923  .00017647  00000+0  65184-3 0  9995
2 41170  14.9861 153.7626 0010021 344.9727  15.0298 15.25012724388322
VELOX-II                
1 41171U 15077F   22352.33803110  .00012228  00000+0  53010-3 0  9993
2 41171  14.9903 239.5074 0006963 161.2281 198.8298 15.19110801387580
HORYU-4                 
1 41340U 16012D   22352.75237837  .00004701  00000+0  31931-3 0  9999
2 41340  31.0044 261.0572 0012954 238.1876 121.7499 15.04707786375491
E-ST@R-II               
1 41459U 16025D   22352.74708491  .00015701  00000+0  60593-3 0  9990
2 41459  98.1915 172.3498 0132198   2.3458 357.8364 15.18543521365418
